HAWK-11A                
1 62382U 24247F   26068.51231358  .00009457  00000+0  34106-3 0  9991
2 62382  44.9941 114.3328 0005466 327.3713  32.6832 15.28849427 67741
STARLINK-34907          
1 65213U 25176R   26068.51817607  .00032734  00000+0  11127-2 0  9997
2 65213  53.1578 153.5626 0000962  85.5613 274.5498 15.30192945 33094
